{"type": "FeatureCollection", "features": [ {"type": "Feature", "properties": {"norad_id": 52912, "name": "GAOFEN-12 03", "group": "resource", "lat": -6.974617371847194, "lon": 67.32506387101846, "alt_km": 635.304990685222, "timestamp": "2025-12-27T06:41:30.556500+00:00", "meta": {"OBJECT_NAME": "GAOFEN-12 03", "OBJECT_ID": "2022-069A", "EPOCH": "2025-12-26T23:21:28.012896", "MEAN_MOTION": 14.7964258, "ECCENTRICITY": 0.00017384, "INCLINATION": 97.8474, "RA_OF_ASC_NODE": 247.9934, "ARG_OF_PERICENTER": 45.1311, "MEAN_ANOMALY": 315.0042, "EPHEMERIS_TYPE": 0, "CLASSIFICATION_TYPE": "U", "NORAD_CAT_ID": 52912, "ELEMENT_SET_NO": 999, "REV_AT_EPOCH": 18914, "BSTAR": 0.00018166044, "MEAN_MOTION_DOT": 1.312e-05, "MEAN_MOTION_DDOT": 0}, "tle": {"line1": "1 52912U 22069A   25360.97324089  .00001312  00000+0  18166-3 0  9997", "line2": "2 52912  97.8474 247.9934 0001738  45.1311 315.0042 14.79642580189146"}}, "geometry": {"type": "Point", "coordinates": [67.32506387101846, -6.974617371847194]}}, {"type": "Feature", "properties": {"norad_id": 54754, "name": "SWOT", "group": "resource", "lat": -23.95406216942837, "lon": -98.23964864456748, "alt_km": 898.5733154646741, "timestamp": "2025-12-27T06:41:30.556517+00:00", "meta": {"OBJECT_NAME": "SWOT", "OBJECT_ID": "2022-173A", "EPOCH": "2025-12-26T22:14:03.633216", "MEAN_MOTION": 14.00169069, "ECCENTRICITY": 4.302e-05, "INCLINATION": 77.6107, "RA_OF_ASC_NODE": 267.8399, "ARG_OF_PERICENTER": 80.7019, "MEAN_ANOMALY": 279.4182, "EPHEMERIS_TYPE": 0, "CLASSIFICATION_TYPE": "U", "NORAD_CAT_ID": 54754, "ELEMENT_SET_NO": 999, "REV_AT_EPOCH": 15504, "BSTAR": 9.0678729e-05, "MEAN_MOTION_DOT": 1.31e-06, "MEAN_MOTION_DDOT": 0}, "tle": {"line1": "1 54754U 22173A   25360.92643094  .00000131  00000+0  90679-4 0  9992", "line2": "2 54754  77.6107 267.8399 0000430  80.7019 279.4182 14.00169069155045"}}, "geometry": {"type": "Point", "coordinates": [-98.23964864456748, -23.95406216942837]}}, {"type": "Feature", "properties": {"norad_id": 57654, "name": "GAOFEN-12 04", "group": "resource", "lat": 1.394117007716513, "lon": -83.37770656391879, "alt_km": 632.8044358272609, "timestamp": "2025-12-27T06:41:30.556527+00:00", "meta": {"OBJECT_NAME": "GAOFEN-12 04", "OBJECT_ID": "2023-123A", "EPOCH": "2025-12-27T00:11:38.084352", "MEAN_MOTION": 14.79742087, "ECCENTRICITY": 0.00011922, "INCLINATION": 97.9129, "RA_OF_ASC_NODE": 276.5496, "ARG_OF_PERICENTER": 80.8213, "MEAN_ANOMALY": 279.3134, "EPHEMERIS_TYPE": 0, "CLASSIFICATION_TYPE": "U", "NORAD_CAT_ID": 57654, "ELEMENT_SET_NO": 999, "REV_AT_EPOCH": 12716, "BSTAR": 0.00022430953, "MEAN_MOTION_DOT": 1.635e-05, "MEAN_MOTION_DDOT": 0}, "tle": {"line1": "1 57654U 23123A   25361.00807968  .00001635  00000+0  22431-3 0  9992", "line2": "2 57654  97.9129 276.5496 0001192  80.8213 279.3134 14.79742087127165"}}, "geometry": {"type": "Point", "coordinates": [-83.37770656391879, 1.394117007716513]}}, {"type": "Feature", "properties": {"norad_id": 59065, "name": "PARS 1", "group": "resource", "lat": 7.200490821834401, "lon": -28.424851137696578, "alt_km": 437.1023364659959, "timestamp": "2025-12-27T06:41:30.556537+00:00", "meta": {"OBJECT_NAME": "PARS 1", "OBJECT_ID": "2024-039Q", "EPOCH": "2025-12-26T22:52:11.366976", "MEAN_MOTION": 15.41304696, "ECCENTRICITY": 0.00113133, "INCLINATION": 97.4655, "RA_OF_ASC_NODE": 332.1913, "ARG_OF_PERICENTER": 28.4975, "MEAN_ANOMALY": 331.6888, "EPHEMERIS_TYPE": 0, "CLASSIFICATION_TYPE": "U", "NORAD_CAT_ID": 59065, "ELEMENT_SET_NO": 999, "REV_AT_EPOCH": 10207, "BSTAR": 0.00034918378, "MEAN_MOTION_DOT": 0.00014498, "MEAN_MOTION_DDOT": 0}, "tle": {"line1": "1 59065U 24039Q   25360.95290934  .00014498  00000+0  34918-3 0  9993", "line2": "2 59065  97.4655 332.1913 0011313  28.4975 331.6888 15.41304696102075"}}, "geometry": {"type": "Point", "coordinates": [-28.424851137696578, 7.200490821834401]}}, {"type": "Feature", "properties": {"norad_id": 59371, "name": "RESURS-P 4", "group": "resource", "lat": 38.85874187133373, "lon": -58.57911095874139, "alt_km": 466.0172027339995, "timestamp": "2025-12-27T06:41:30.556548+00:00", "meta": {"OBJECT_NAME": "RESURS-P 4", "OBJECT_ID": "2024-061A", "EPOCH": "2025-12-26T22:41:03.416352", "MEAN_MOTION": 15.32212116, "ECCENTRICITY": 7.96e-05, "INCLINATION": 97.2562, "RA_OF_ASC_NODE": 306.9863, "ARG_OF_PERICENTER": 91.8919, "MEAN_ANOMALY": 268.2414, "EPHEMERIS_TYPE": 0, "CLASSIFICATION_TYPE": "U", "NORAD_CAT_ID": 59371, "ELEMENT_SET_NO": 999, "REV_AT_EPOCH": 9738, "BSTAR": 0.00015657958, "MEAN_MOTION_DOT": 4.793e-05, "MEAN_MOTION_DDOT": 0}, "tle": {"line1": "1 59371U 24061A   25360.94517843  .00004793  00000+0  15658-3 0  9995", "line2": "2 59371  97.2562 306.9863 0000796  91.8919 268.2414 15.32212116 97380"}}, "geometry": {"type": "Point", "coordinates": [-58.57911095874139, 38.85874187133373]}}, {"type": "Feature", "properties": {"norad_id": 59625, "name": "LEGION 1", "group": "resource", "lat": 10.194369002994586, "lon": -102.84590381492507, "alt_km": 517.2810708991283, "timestamp": "2025-12-27T06:41:30.556558+00:00", "meta": {"OBJECT_NAME": "LEGION 1", "OBJECT_ID": "2024-081A", "EPOCH": "2025-12-26T22:01:43.243968", "MEAN_MOTION": 15.16619929, "ECCENTRICITY": 0.00036625, "INCLINATION": 97.5192, "RA_OF_ASC_NODE": 75.4352, "ARG_OF_PERICENTER": 251.066, "MEAN_ANOMALY": 109.0176, "EPHEMERIS_TYPE": 0, "CLASSIFICATION_TYPE": "U", "NORAD_CAT_ID": 59625, "ELEMENT_SET_NO": 999, "REV_AT_EPOCH": 9142, "BSTAR": 0.00029376465, "MEAN_MOTION_DOT": 5.676e-05, "MEAN_MOTION_DDOT": 0}, "tle": {"line1": "1 59625U 24081A   25360.91786162  .00005676  00000+0  29376-3 0  9991", "line2": "2 59625  97.5192  75.4352 0003662 251.0660 109.0176 15.16619929 91424"}}, "geometry": {"type": "Point", "coordinates": [-102.84590381492507, 10.194369002994586]}}, {"type": "Feature", "properties": {"norad_id": 59626, "name": "LEGION 2", "group": "resource", "lat": -9.898153901831138, "lon": 77.20182452197406, "alt_km": 522.2171202050231, "timestamp": "2025-12-27T06:41:30.556568+00:00", "meta": {"OBJECT_NAME": "LEGION 2", "OBJECT_ID": "2024-081B", "EPOCH": "2025-12-26T22:49:06.581568", "MEAN_MOTION": 15.16635496, "ECCENTRICITY": 0.00058371, "INCLINATION": 97.5197, "RA_OF_ASC_NODE": 75.5558, "ARG_OF_PERICENTER": 232.4671, "MEAN_ANOMALY": 127.6033, "EPHEMERIS_TYPE": 0, "CLASSIFICATION_TYPE": "U", "NORAD_CAT_ID": 59626, "ELEMENT_SET_NO": 999, "REV_AT_EPOCH": 9143, "BSTAR": 0.00032976569, "MEAN_MOTION_DOT": 6.385e-05, "MEAN_MOTION_DDOT": 0}, "tle": {"line1": "1 59626U 24081B   25360.95077062  .00006385  00000+0  32977-3 0  9997", "line2": "2 59626  97.5197  75.5558 0005837 232.4671 127.6033 15.16635496 91436"}}, "geometry": {"type": "Point", "coordinates": [77.20182452197406, -9.898153901831138]}}, {"type": "Feature", "properties": {"norad_id": 60182, "name": "ALOS-4 (DAICHI-4)", "group": "resource", "lat": -48.59332318120372, "lon": -93.1667589849792, "alt_km": 638.4758126428496, "timestamp": "2025-12-27T06:41:30.556578+00:00", "meta": {"OBJECT_NAME": "ALOS-4 (DAICHI-4)", "OBJECT_ID": "2024-123A", "EPOCH": "2025-12-26T19:55:12.965952", "MEAN_MOTION": 14.79478137, "ECCENTRICITY": 0.00014191, "INCLINATION": 97.9215, "RA_OF_ASC_NODE": 95.4758, "ARG_OF_PERICENTER": 100.4397, "MEAN_ANOMALY": 259.6975, "EPHEMERIS_TYPE": 0, "CLASSIFICATION_TYPE": "U", "NORAD_CAT_ID": 60182, "ELEMENT_SET_NO": 999, "REV_AT_EPOCH": 8039, "BSTAR": 0.00030778868, "MEAN_MOTION_DOT": 2.248e-05, "MEAN_MOTION_DDOT": 0}, "tle": {"line1": "1 60182U 24123A   25360.83001118  .00002248  00000+0  30779-3 0  9991", "line2": "2 60182  97.9215  95.4758 0001419 100.4397 259.6975 14.79478137 80393"}}, "geometry": {"type": "Point", "coordinates": [-93.1667589849792, -48.59332318120372]}}, {"type": "Feature", "properties": {"norad_id": 60452, "name": "LEGION 3", "group": "resource", "lat": 30.9745108992631, "lon": 15.263950508658954, "alt_km": 522.1611728543221, "timestamp": "2025-12-27T06:41:30.556589+00:00", "meta": {"OBJECT_NAME": "LEGION 3", "OBJECT_ID": "2024-146A", "EPOCH": "2025-12-26T20:36:58.724928", "MEAN_MOTION": 15.15906351, "ECCENTRICITY": 0.00157598, "INCLINATION": 45.0004, "RA_OF_ASC_NODE": 234.4336, "ARG_OF_PERICENTER": 273.5819, "MEAN_ANOMALY": 86.3257, "EPHEMERIS_TYPE": 0, "CLASSIFICATION_TYPE": "U", "NORAD_CAT_ID": 60452, "ELEMENT_SET_NO": 999, "REV_AT_EPOCH": 7587, "BSTAR": 0.00032671716, "MEAN_MOTION_DOT": 6.122e-05, "MEAN_MOTION_DDOT": 0}, "tle": {"line1": "1 60452U 24146A   25360.85901302  .00006122  00000+0  32672-3 0  9991", "line2": "2 60452  45.0004 234.4336 0015759 273.5819  86.3257 15.15906351 75873"}}, "geometry": {"type": "Point", "coordinates": [15.263950508658954, 30.9745108992631]}}, {"type": "Feature", "properties": {"norad_id": 60453, "name": "LEGION 4", "group": "resource", "lat": 30.857253756952726, "lon": 107.31588461394455, "alt_km": 514.3030876526536, "timestamp": "2025-12-27T06:41:30.556600+00:00", "meta": {"OBJECT_NAME": "LEGION 4", "OBJECT_ID": "2024-146B", "EPOCH": "2025-12-26T22:11:56.583744", "MEAN_MOTION": 15.15982395, "ECCENTRICITY": 0.00078319, "INCLINATION": 45.0396, "RA_OF_ASC_NODE": 325.8731, "ARG_OF_PERICENTER": 30.8391, "MEAN_ANOMALY": 329.2947, "EPHEMERIS_TYPE": 0, "CLASSIFICATION_TYPE": "U", "NORAD_CAT_ID": 60453, "ELEMENT_SET_NO": 999, "REV_AT_EPOCH": 7473, "BSTAR": 0.00036641717, "MEAN_MOTION_DOT": 6.9e-05, "MEAN_MOTION_DDOT": 0}, "tle": {"line1": "1 60453U 24146B   25360.92496046  .00006900  00000+0  36642-3 0  9999", "line2": "2 60453  45.0396 325.8731 0007831  30.8391 329.2947 15.15982395 74734"}}, "geometry": {"type": "Point", "coordinates": [107.31588461394455, 30.857253756952726]}}]}